{"type": "FeatureCollection", "features": [ {"type": "Feature", "properties": {"norad_id": 66465, "name": "STARLINK-35448", "group": "last-30-days", "lat": -29.038023864811425, "lon": 41.42233232961475, "alt_km": 445.62627874763984, "timestamp": "2025-12-11T13:55:00.913095+00:00", "meta": {"OBJECT_NAME": "STARLINK-35448", "OBJECT_ID": "2025-262K", "EPOCH": "2025-12-11T06:00:02.999808", "MEAN_MOTION": 15.40589553, "ECCENTRICITY": 0.00018813, "INCLINATION": 43.0005, "RA_OF_ASC_NODE": 79.8906, "ARG_OF_PERICENTER": 281.8126, "MEAN_ANOMALY": 1.2939, "EPHEMERIS_TYPE": 0, "CLASSIFICATION_TYPE": "U", "NORAD_CAT_ID": 66465, "ELEMENT_SET_NO": 999, "REV_AT_EPOCH": 539, "BSTAR": 0.0036602634, "MEAN_MOTION_DOT": 0.00155175, "MEAN_MOTION_DDOT": 0}, "tle": {"line1": "1 66465U 25262K   25345.25003472  .00155175  00000+0  36603-2 0  9999", "line2": "2 66465  43.0005  79.8906 0001881 281.8126   1.2939 15.40589553  5392"}}, "geometry": {"type": "Point", "coordinates": [41.42233232961475, -29.038023864811425]}}, {"type": "Feature", "properties": {"norad_id": 66466, "name": "STARLINK-35388", "group": "last-30-days", "lat": -21.711324184461386, "lon": 52.662435864716215, "alt_km": 446.0378314716081, "timestamp": "2025-12-11T13:55:00.913106+00:00", "meta": {"OBJECT_NAME": "STARLINK-35388", "OBJECT_ID": "2025-262L", "EPOCH": "2025-12-11T06:00:02.999808", "MEAN_MOTION": 15.41858248, "ECCENTRICITY": 8.936e-05, "INCLINATION": 43.0007, "RA_OF_ASC_NODE": 79.8606, "ARG_OF_PERICENTER": 248.3686, "MEAN_ANOMALY": 46.5371, "EPHEMERIS_TYPE": 0, "CLASSIFICATION_TYPE": "U", "NORAD_CAT_ID": 66466, "ELEMENT_SET_NO": 999, "REV_AT_EPOCH": 539, "BSTAR": -0.041958045, "MEAN_MOTION_DOT": -0.01630687, "MEAN_MOTION_DDOT": 0}, "tle": {"line1": "1 66466U 25262L   25345.25003472 -.01630687  00000+0 -41958-1 0  9997", "line2": "2 66466  43.0007  79.8606 0000893 248.3686  46.5371 15.41858248  5396"}}, "geometry": {"type": "Point", "coordinates": [52.662435864716215, -21.711324184461386]}}, {"type": "Feature", "properties": {"norad_id": 66467, "name": "STARLINK-35682", "group": "last-30-days", "lat": -35.21685182203511, "lon": 28.77785021739169, "alt_km": 446.3926140792273, "timestamp": "2025-12-11T13:55:00.913116+00:00", "meta": {"OBJECT_NAME": "STARLINK-35682", "OBJECT_ID": "2025-262M", "EPOCH": "2025-12-11T06:00:02.999808", "MEAN_MOTION": 15.4073188, "ECCENTRICITY": 0.00012088, "INCLINATION": 43.0006, "RA_OF_ASC_NODE": 79.9204, "ARG_OF_PERICENTER": 265.5388, "MEAN_ANOMALY": 5.0995, "EPHEMERIS_TYPE": 0, "CLASSIFICATION_TYPE": "U", "NORAD_CAT_ID": 66467, "ELEMENT_SET_NO": 999, "REV_AT_EPOCH": 539, "BSTAR": -0.0013779604, "MEAN_MOTION_DOT": -0.00057492, "MEAN_MOTION_DDOT": 0}, "tle": {"line1": "1 66467U 25262M   25345.25003472 -.00057492  00000+0 -13780-2 0  9997", "line2": "2 66467  43.0006  79.9204 0001208 265.5388   5.0995 15.40731880  5395"}}, "geometry": {"type": "Point", "coordinates": [28.77785021739169, -35.21685182203511]}}, {"type": "Feature", "properties": {"norad_id": 66468, "name": "STARLINK-35331", "group": "last-30-days", "lat": -14.123280520951164, "lon": 62.26512118477008, "alt_km": 441.4559145077128, "timestamp": "2025-12-11T13:55:00.913129+00:00", "meta": {"OBJECT_NAME": "STARLINK-35331", "OBJECT_ID": "2025-262N", "EPOCH": "2025-12-11T06:00:02.999808", "MEAN_MOTION": 15.43249398, "ECCENTRICITY": 0.00013064, "INCLINATION": 43.001, "RA_OF_ASC_NODE": 79.8363, "ARG_OF_PERICENTER": 263.3897, "MEAN_ANOMALY": 41.8319, "EPHEMERIS_TYPE": 0, "CLASSIFICATION_TYPE": "U", "NORAD_CAT_ID": 66468, "ELEMENT_SET_NO": 999, "REV_AT_EPOCH": 539, "BSTAR": -0.044626748, "MEAN_MOTION_DOT": -0.01828275, "MEAN_MOTION_DDOT": 0}, "tle": {"line1": "1 66468U 25262N   25345.25003472 -.01828275  00000+0 -44627-1 0  9997", "line2": "2 66468  43.0010  79.8363 0001306 263.3897  41.8319 15.43249398  5395"}}, "geometry": {"type": "Point", "coordinates": [62.26512118477008, -14.123280520951164]}}, {"type": "Feature", "properties": {"norad_id": 66469, "name": "STARLINK-35451", "group": "last-30-days", "lat": 9.058877819794363, "lon": 87.69398913588222, "alt_km": 415.1814975249399, "timestamp": "2025-12-11T13:55:00.913139+00:00", "meta": {"OBJECT_NAME": "STARLINK-35451", "OBJECT_ID": "2025-262P", "EPOCH": "2025-12-10T16:12:32.558112", "MEAN_MOTION": 15.50219904, "ECCENTRICITY": 4.921e-05, "INCLINATION": 43.0005, "RA_OF_ASC_NODE": 83.1302, "ARG_OF_PERICENTER": 334.6757, "MEAN_ANOMALY": 25.4079, "EPHEMERIS_TYPE": 0, "CLASSIFICATION_TYPE": "U", "NORAD_CAT_ID": 66469, "ELEMENT_SET_NO": 999, "REV_AT_EPOCH": 524, "BSTAR": -0.0029160526, "MEAN_MOTION_DOT": -0.00165698, "MEAN_MOTION_DDOT": 0}, "tle": {"line1": "1 66469U 25262P   25344.67537683 -.00165698  00000+0 -29161-2 0  9998", "line2": "2 66469  43.0005  83.1302 0000492 334.6757  25.4079 15.50219904  5246"}}, "geometry": {"type": "Point", "coordinates": [87.69398913588222, 9.058877819794363]}}, {"type": "Feature", "properties": {"norad_id": 66470, "name": "STARLINK-35655", "group": "last-30-days", "lat": -7.124414261912984, "lon": 70.19610388205197, "alt_km": 437.2131422507, "timestamp": "2025-12-11T13:55:00.913164+00:00", "meta": {"OBJECT_NAME": "STARLINK-35655", "OBJECT_ID": "2025-262Q", "EPOCH": "2025-12-11T06:00:02.999808", "MEAN_MOTION": 15.44638067, "ECCENTRICITY": 0.00012146, "INCLINATION": 43.0006, "RA_OF_ASC_NODE": 79.8146, "ARG_OF_PERICENTER": 265.0976, "MEAN_ANOMALY": 49.0584, "EPHEMERIS_TYPE": 0, "CLASSIFICATION_TYPE": "U", "NORAD_CAT_ID": 66470, "ELEMENT_SET_NO": 999, "REV_AT_EPOCH": 539, "BSTAR": -0.047758358, "MEAN_MOTION_DOT": -0.02027402, "MEAN_MOTION_DDOT": 0}, "tle": {"line1": "1 66470U 25262Q   25345.25003472 -.02027402  00000+0 -47758-1 0  9992", "line2": "2 66470  43.0006  79.8146 0001214 265.0976  49.0584 15.44638067  5397"}}, "geometry": {"type": "Point", "coordinates": [70.19610388205197, -7.124414261912984]}}, {"type": "Feature", "properties": {"norad_id": 66471, "name": "STARLINK-35569", "group": "last-30-days", "lat": -0.9384920068527755, "lon": 76.87453037298643, "alt_km": 432.5967970348356, "timestamp": "2025-12-11T13:55:00.913175+00:00", "meta": {"OBJECT_NAME": "STARLINK-35569", "OBJECT_ID": "2025-262R", "EPOCH": "2025-12-11T06:00:02.999808", "MEAN_MOTION": 15.45967302, "ECCENTRICITY": 0.0001396, "INCLINATION": 43.0002, "RA_OF_ASC_NODE": 79.796, "ARG_OF_PERICENTER": 269.1015, "MEAN_ANOMALY": 52.5709, "EPHEMERIS_TYPE": 0, "CLASSIFICATION_TYPE": "U", "NORAD_CAT_ID": 66471, "ELEMENT_SET_NO": 999, "REV_AT_EPOCH": 539, "BSTAR": -0.04542715, "MEAN_MOTION_DOT": -0.02020196, "MEAN_MOTION_DDOT": 0}, "tle": {"line1": "1 66471U 25262R   25345.25003472 -.02020196  00000+0 -45427-1 0  9997", "line2": "2 66471  43.0002  79.7960 0001396 269.1015  52.5709 15.45967302  5393"}}, "geometry": {"type": "Point", "coordinates": [76.87453037298643, -0.9384920068527755]}}, {"type": "Feature", "properties": {"norad_id": 66472, "name": "STARLINK-35567", "group": "last-30-days", "lat": 9.108591542151805, "lon": 87.75140157115938, "alt_km": 420.414586189243, "timestamp": "2025-12-11T13:55:00.913185+00:00", "meta": {"OBJECT_NAME": "STARLINK-35567", "OBJECT_ID": "2025-262S", "EPOCH": "2025-12-11T07:40:02.933760", "MEAN_MOTION": 15.48861865, "ECCENTRICITY": 0.00012775, "INCLINATION": 43.0006, "RA_OF_ASC_NODE": 79.3633, "ARG_OF_PERICENTER": 259.641, "MEAN_ANOMALY": 100.4305, "EPHEMERIS_TYPE": 0, "CLASSIFICATION_TYPE": "U", "NORAD_CAT_ID": 66472, "ELEMENT_SET_NO": 999, "REV_AT_EPOCH": 534, "BSTAR": -0.01801464, "MEAN_MOTION_DOT": -0.00914734, "MEAN_MOTION_DDOT": 0}, "tle": {"line1": "1 66472U 25262S   25345.31947840 -.00914734  00000+0 -18015-1 0  9992", "line2": "2 66472  43.0006  79.3633 0001277 259.6410 100.4305 15.48861865  5342"}}, "geometry": {"type": "Point", "coordinates": [87.75140157115938, 9.108591542151805]}}, {"type": "Feature", "properties": {"norad_id": 66473, "name": "STARLINK-35568", "group": "last-30-days", "lat": 12.713330267450742, "lon": 91.84126220123042, "alt_km": 414.638630301778, "timestamp": "2025-12-11T13:55:00.913195+00:00", "meta": {"OBJECT_NAME": "STARLINK-35568", "OBJECT_ID": "2025-262T", "EPOCH": "2025-12-11T07:39:08.069760", "MEAN_MOTION": 15.50526439, "ECCENTRICITY": 0.00047596, "INCLINATION": 42.9998, "RA_OF_ASC_NODE": 79.3576, "ARG_OF_PERICENTER": 252.6139, "MEAN_ANOMALY": 107.4201, "EPHEMERIS_TYPE": 0, "CLASSIFICATION_TYPE": "U", "NORAD_CAT_ID": 66473, "ELEMENT_SET_NO": 999, "REV_AT_EPOCH": 534, "BSTAR": 0.0038259112, "MEAN_MOTION_DOT": 0.00230458, "MEAN_MOTION_DDOT": 0}, "tle": {"line1": "1 66473U 25262T   25345.31884340  .00230458  00000+0  38259-2 0  9993", "line2": "2 66473  42.9998  79.3576 0004759 252.6139 107.4201 15.50526439  5346"}}, "geometry": {"type": "Point", "coordinates": [91.84126220123042, 12.713330267450742]}}, {"type": "Feature", "properties": {"norad_id": 66474, "name": "STARLINK-35620", "group": "last-30-days", "lat": 14.273736935674492, "lon": 93.66697870117906, "alt_km": 412.3569664594861, "timestamp": "2025-12-11T13:55:00.913208+00:00", "meta": {"OBJECT_NAME": "STARLINK-35620", "OBJECT_ID": "2025-262U", "EPOCH": "2025-12-11T07:38:34.341792", "MEAN_MOTION": 15.50718811, "ECCENTRICITY": 0.00019374, "INCLINATION": 43.0007, "RA_OF_ASC_NODE": 79.3535, "ARG_OF_PERICENTER": 275.2448, "MEAN_ANOMALY": 84.8191, "EPHEMERIS_TYPE": 0, "CLASSIFICATION_TYPE": "U", "NORAD_CAT_ID": 66474, "ELEMENT_SET_NO": 999, "REV_AT_EPOCH": 534, "BSTAR": 0.0036220445, "MEAN_MOTION_DOT": 0.00219297, "MEAN_MOTION_DDOT": 0}, "tle": {"line1": "1 66474U 25262U   25345.31845303  .00219297  00000+0  36220-2 0  9994", "line2": "2 66474  43.0007  79.3535 0001937 275.2448  84.8191 15.50718811  5347"}}, "geometry": {"type": "Point", "coordinates": [93.66697870117906, 14.273736935674492]}}]}